{"type": "FeatureCollection", "features": [{"type": "Feature", "properties": {"norad_id": 22675, "name": "COSMOS 2251", "group": "cosmos-2251-debris", "lat": 23.189952495096414, "lon": -46.65758812885976, "alt_km": 762.9419624327138, "timestamp": "2025-12-17T23:38:07.245804+00:00", "meta": {"OBJECT_NAME": "COSMOS 2251", "OBJECT_ID": "1993-036A", "EPOCH": "2025-12-17T08:26:46.650048", "MEAN_MOTION": 14.33206259, "ECCENTRICITY": 0.00241587, "INCLINATION": 74.0399, "RA_OF_ASC_NODE": 307.4563, "ARG_OF_PERICENTER": 28.4076, "MEAN_ANOMALY": 331.8386, "EPHEMERIS_TYPE": 0, "CLASSIFICATION_TYPE": "U", "NORAD_CAT_ID": 22675, "ELEMENT_SET_NO": 999, "REV_AT_EPOCH": 69839, "BSTAR": 4.7388106e-05, "MEAN_MOTION_DOT": 1.05e-06, "MEAN_MOTION_DDOT": 0}, "tle": {"line1": "1 22675U 93036A   25351.35192882  .00000105  00000+0  47388-4 0  9996", "line2": "2 22675  74.0399 307.4563 0024158  28.4076 331.8386 14.33206259698393"}}, "geometry": {"type": "Point", "coordinates": [-46.65758812885976, 23.189952495096414]}}, {"type": "Feature", "properties": {"norad_id": 33757, "name": "COSMOS 2251 DEB", "group": "cosmos-2251-debris", "lat": 48.75304218744005, "lon": -26.91413698342392, "alt_km": 777.3902749956278, "timestamp": "2025-12-17T23:38:07.245827+00:00", "meta": {"OBJECT_NAME": "COSMOS 2251 DEB", "OBJECT_ID": "1993-036E", "EPOCH": "2025-12-17T15:51:45.844128", "MEAN_MOTION": 14.32582286, "ECCENTRICITY": 0.00154427, "INCLINATION": 74.0371, "RA_OF_ASC_NODE": 314.6254, "ARG_OF_PERICENTER": 327.1226, "MEAN_ANOMALY": 214.6513, "EPHEMERIS_TYPE": 0, "CLASSIFICATION_TYPE": "U", "NORAD_CAT_ID": 33757, "ELEMENT_SET_NO": 999, "REV_AT_EPOCH": 88066, "BSTAR": 3.6144562e-05, "MEAN_MOTION_DOT": 7.2e-07, "MEAN_MOTION_DDOT": 0}, "tle": {"line1": "1 33757U 93036E   25351.66094727  .00000072  00000+0  36145-4 0  9994", "line2": "2 33757  74.0371 314.6254 0015442 327.1226 214.6513 14.32582286880664"}}, "geometry": {"type": "Point", "coordinates": [-26.91413698342392, 48.75304218744005]}}, {"type": "Feature", "properties": {"norad_id": 33758, "name": "COSMOS 2251 DEB", "group": "cosmos-2251-debris", "lat": -3.9713219300880396, "lon": -155.98876463149765, "alt_km": 722.2842514004133, "timestamp": "2025-12-17T23:38:07.245842+00:00", "meta": {"OBJECT_NAME": "COSMOS 2251 DEB", "OBJECT_ID": "1993-036F", "EPOCH": "2025-12-17T15:38:33.531936", "MEAN_MOTION": 14.51623446, "ECCENTRICITY": 0.00173021, "INCLINATION": 74.027, "RA_OF_ASC_NODE": 205.7777, "ARG_OF_PERICENTER": 272.1767, "MEAN_ANOMALY": 143.9618, "EPHEMERIS_TYPE": 0, "CLASSIFICATION_TYPE": "U", "NORAD_CAT_ID": 33758, "ELEMENT_SET_NO": 999, "REV_AT_EPOCH": 88376, "BSTAR": 0.00056215394, "MEAN_MOTION_DOT": 2.23e-05, "MEAN_MOTION_DDOT": 0}, "tle": {"line1": "1 33758U 93036F   25351.65177699  .00002230  00000+0  56215-3 0  9991", "line2": "2 33758  74.0270 205.7777 0017302 272.1767 143.9618 14.51623446883768"}}, "geometry": {"type": "Point", "coordinates": [-155.98876463149765, -3.9713219300880396]}}, {"type": "Feature", "properties": {"norad_id": 33760, "name": "COSMOS 2251 DEB", "group": "cosmos-2251-debris", "lat": -3.0827782554727405, "lon": -89.052631844034, "alt_km": 761.7722564464784, "timestamp": "2025-12-17T23:38:07.245854+00:00", "meta": {"OBJECT_NAME": "COSMOS 2251 DEB", "OBJECT_ID": "1993-036H", "EPOCH": "2025-12-17T05:57:41.091264", "MEAN_MOTION": 14.35675762, "ECCENTRICITY": 0.00200864, "INCLINATION": 74.0321, "RA_OF_ASC_NODE": 273.1819, "ARG_OF_PERICENTER": 10.4601, "MEAN_ANOMALY": 141.9207, "EPHEMERIS_TYPE": 0, "CLASSIFICATION_TYPE": "U", "NORAD_CAT_ID": 33760, "ELEMENT_SET_NO": 999, "REV_AT_EPOCH": 88189, "BSTAR": 9.0831536e-05, "MEAN_MOTION_DOT": 2.37e-06, "MEAN_MOTION_DDOT": 0}, "tle": {"line1": "1 33760U 93036H   25351.24839226  .00000237  00000+0  90832-4 0  9999", "line2": "2 33760  74.0321 273.1819 0020086  10.4601 141.9207 14.35675762881891"}}, "geometry": {"type": "Point", "coordinates": [-89.052631844034, -3.0827782554727405]}}, {"type": "Feature", "properties": {"norad_id": 33761, "name": "COSMOS 2251 DEB", "group": "cosmos-2251-debris", "lat": 52.58965218726684, "lon": -95.58887288253077, "alt_km": 745.8814545128889, "timestamp": "2025-12-17T23:38:07.245865+00:00", "meta": {"OBJECT_NAME": "COSMOS 2251 DEB", "OBJECT_ID": "1993-036J", "EPOCH": "2025-12-17T03:57:37.420416", "MEAN_MOTION": 14.42558029, "ECCENTRICITY": 0.0023166, "INCLINATION": 74.0358, "RA_OF_ASC_NODE": 243.9526, "ARG_OF_PERICENTER": 323.5493, "MEAN_ANOMALY": 156.3374, "EPHEMERIS_TYPE": 0, "CLASSIFICATION_TYPE": "U", "NORAD_CAT_ID": 33761, "ELEMENT_SET_NO": 999, "REV_AT_EPOCH": 88298, "BSTAR": 0.00036642801, "MEAN_MOTION_DOT": 1.193e-05, "MEAN_MOTION_DDOT": 0}, "tle": {"line1": "1 33761U 93036J   25351.16501644  .00001193  00000+0  36643-3 0  9992", "line2": "2 33761  74.0358 243.9526 0023166 323.5493 156.3374 14.42558029882981"}}, "geometry": {"type": "Point", "coordinates": [-95.58887288253077, 52.58965218726684]}}, {"type": "Feature", "properties": {"norad_id": 33762, "name": "COSMOS 2251 DEB", "group": "cosmos-2251-debris", "lat": -69.41781580774501, "lon": 170.0760148787406, "alt_km": 789.0042154588809, "timestamp": "2025-12-17T23:38:07.245877+00:00", "meta": {"OBJECT_NAME": "COSMOS 2251 DEB", "OBJECT_ID": "1993-036K", "EPOCH": "2025-12-17T14:53:47.645376", "MEAN_MOTION": 14.33665311, "ECCENTRICITY": 0.00152035, "INCLINATION": 74.042, "RA_OF_ASC_NODE": 301.1029, "ARG_OF_PERICENTER": 1.3422, "MEAN_ANOMALY": 177.1205, "EPHEMERIS_TYPE": 0, "CLASSIFICATION_TYPE": "U", "NORAD_CAT_ID": 33762, "ELEMENT_SET_NO": 999, "REV_AT_EPOCH": 88117, "BSTAR": 4.1425457e-05, "MEAN_MOTION_DOT": 8.9e-07, "MEAN_MOTION_DDOT": 0}, "tle": {"line1": "1 33762U 93036K   25351.62069034  .00000089  00000+0  41425-4 0  9994", "line2": "2 33762  74.0420 301.1029 0015203   1.3422 177.1205 14.33665311881170"}}, "geometry": {"type": "Point", "coordinates": [170.0760148787406, -69.41781580774501]}}, {"type": "Feature", "properties": {"norad_id": 33764, "name": "COSMOS 2251 DEB", "group": "cosmos-2251-debris", "lat": 31.5723357544907, "lon": 72.83889819732346, "alt_km": 755.1953867709071, "timestamp": "2025-12-17T23:38:07.245887+00:00", "meta": {"OBJECT_NAME": "COSMOS 2251 DEB", "OBJECT_ID": "1993-036M", "EPOCH": "2025-12-17T12:04:52.590144", "MEAN_MOTION": 14.39520729, "ECCENTRICITY": 0.00237288, "INCLINATION": 74.0336, "RA_OF_ASC_NODE": 263.8609, "ARG_OF_PERICENTER": 228.7467, "MEAN_ANOMALY": 304.5891, "EPHEMERIS_TYPE": 0, "CLASSIFICATION_TYPE": "U", "NORAD_CAT_ID": 33764, "ELEMENT_SET_NO": 999, "REV_AT_EPOCH": 88225, "BSTAR": 0.0002693069, "MEAN_MOTION_DOT": 8.16e-06, "MEAN_MOTION_DDOT": 0}, "tle": {"line1": "1 33764U 93036M   25351.50338646  .00000816  00000+0  26931-3 0  9993", "line2": "2 33764  74.0336 263.8609 0023728 228.7467 304.5891 14.39520729882257"}}, "geometry": {"type": "Point", "coordinates": [72.83889819732346, 31.5723357544907]}}, {"type": "Feature", "properties": {"norad_id": 33765, "name": "COSMOS 2251 DEB", "group": "cosmos-2251-debris", "lat": -45.910012583898265, "lon": -0.5205678000926411, "alt_km": 501.026395993983, "timestamp": "2025-12-17T23:38:07.245899+00:00", "meta": {"OBJECT_NAME": "COSMOS 2251 DEB", "OBJECT_ID": "1993-036N", "EPOCH": "2025-12-17T15:00:41.929056", "MEAN_MOTION": 15.1027159, "ECCENTRICITY": 0.0064995, "INCLINATION": 74.0074, "RA_OF_ASC_NODE": 163.0012, "ARG_OF_PERICENTER": 254.2487, "MEAN_ANOMALY": 181.538, "EPHEMERIS_TYPE": 0, "CLASSIFICATION_TYPE": "U", "NORAD_CAT_ID": 33765, "ELEMENT_SET_NO": 999, "REV_AT_EPOCH": 89692, "BSTAR": 0.0013862294, "MEAN_MOTION_DOT": 0.000239, "MEAN_MOTION_DDOT": 0}, "tle": {"line1": "1 33765U 93036N   25351.62548529  .00023900  00000+0  13862-2 0  9997", "line2": "2 33765  74.0074 163.0012 0064995 254.2487 181.5380 15.10271590896927"}}, "geometry": {"type": "Point", "coordinates": [-0.5205678000926411, -45.910012583898265]}}, {"type": "Feature", "properties": {"norad_id": 33766, "name": "COSMOS 2251 DEB", "group": "cosmos-2251-debris", "lat": 69.82250691234111, "lon": -105.01330383712835, "alt_km": 800.715534852242, "timestamp": "2025-12-17T23:38:07.245909+00:00", "meta": {"OBJECT_NAME": "COSMOS 2251 DEB", "OBJECT_ID": "1993-036P", "EPOCH": "2025-12-17T11:26:48.732288", "MEAN_MOTION": 14.34947639, "ECCENTRICITY": 0.00643926, "INCLINATION": 74.1855, "RA_OF_ASC_NODE": 126.3766, "ARG_OF_PERICENTER": 328.4387, "MEAN_ANOMALY": 31.291, "EPHEMERIS_TYPE": 0, "CLASSIFICATION_TYPE": "U", "NORAD_CAT_ID": 33766, "ELEMENT_SET_NO": 999, "REV_AT_EPOCH": 87813, "BSTAR": 0.00042096121, "MEAN_MOTION_DOT": 1.201e-05, "MEAN_MOTION_DDOT": 0}, "tle": {"line1": "1 33766U 93036P   25351.47695292  .00001201  00000+0  42096-3 0  9993", "line2": "2 33766  74.1855 126.3766 0064392 328.4387  31.2910 14.34947639878130"}}, "geometry": {"type": "Point", "coordinates": [-105.01330383712835, 69.82250691234111]}}, {"type": "Feature", "properties": {"norad_id": 33768, "name": "COSMOS 2251 DEB", "group": "cosmos-2251-debris", "lat": 27.127950579096034, "lon": -140.18144155308872, "alt_km": 783.6705907243913, "timestamp": "2025-12-17T23:38:07.245920+00:00", "meta": {"OBJECT_NAME": "COSMOS 2251 DEB", "OBJECT_ID": "1993-036R", "EPOCH": "2025-12-17T08:26:42.694656", "MEAN_MOTION": 13.58458829, "ECCENTRICITY": 0.03665637, "INCLINATION": 74.0673, "RA_OF_ASC_NODE": 212.4244, "ARG_OF_PERICENTER": 9.1629, "MEAN_ANOMALY": 163.6944, "EPHEMERIS_TYPE": 0, "CLASSIFICATION_TYPE": "U", "NORAD_CAT_ID": 33768, "ELEMENT_SET_NO": 999, "REV_AT_EPOCH": 83358, "BSTAR": 0.00029264469, "MEAN_MOTION_DOT": 3.09e-06, "MEAN_MOTION_DDOT": 0}, "tle": {"line1": "1 33768U 93036R   25351.35188304  .00000309  00000+0  29264-3 0  9993", "line2": "2 33768  74.0673 212.4244 0366563   9.1629 163.6944 13.58458829833584"}}, "geometry": {"type": "Point", "coordinates": [-140.18144155308872, 27.127950579096034]}}]}